{
  "norad_id": 66610,
  "name": "STARLINK-35680",
  "history": [
    {
      "epoch": "2026-05-07T14:07:57.523008Z",
      "apogee_km": 483.43587835567996,
      "perigee_km": 482.69486849934947,
      "latitude_deg": -1.0431824204253165e-05,
      "longitude_deg": 6.1329317457738535,
      "height_km": 482.7982254154856,
      "semi_major_axis_km": 6861.202373427514,
      "eccentricity": 5.4e-05,
      "inclination_deg": 43.0015,
      "raan_deg": 83.5556,
      "arg_perigee_deg": 276.7049,
      "mean_anomaly_deg": 83.3741,
      "mean_motion_rev_day": 15.27574564
    },
    {
      "epoch": "2026-05-08T19:56:55.330944Z",
      "apogee_km": 483.27246651051337,
      "perigee_km": 482.6522231297413,
      "latitude_deg": -2.317299915781229e-05,
      "longitude_deg": -89.34775399003058,
      "height_km": 482.72771906183465,
      "semi_major_axis_km": 6861.099344820127,
      "eccentricity": 4.52e-05,
      "inclination_deg": 42.9976,
      "raan_deg": 76.5403,
      "arg_perigee_deg": 88.2828,
      "mean_anomaly_deg": 271.8075,
      "mean_motion_rev_day": 15.27608972
    },
    {
      "epoch": "2026-05-09T05:21:51.311520Z",
      "apogee_km": 483.6580725111562,
      "perigee_km": 482.3414203695156,
      "latitude_deg": 4.489478767054309e-06,
      "longitude_deg": 126.81613929155745,
      "height_km": 482.8199055674418,
      "semi_major_axis_km": 6861.136746440336,
      "eccentricity": 9.595e-05,
      "inclination_deg": 43.0021,
      "raan_deg": 74.3241,
      "arg_perigee_deg": 266.2016,
      "mean_anomaly_deg": 93.8726,
      "mean_motion_rev_day": 15.27596481
    },
    {
      "epoch": "2026-05-10T20:35:46.642272Z",
      "apogee_km": 483.9024077992326,
      "perigee_km": 482.16241523647113,
      "latitude_deg": 2.9195257766804416e-05,
      "longitude_deg": -112.5078840392076,
      "height_km": 482.8596941796985,
      "semi_major_axis_km": 6861.169411517852,
      "eccentricity": 0.0001268,
      "inclination_deg": 43.0015,
      "raan_deg": 65.0918,
      "arg_perigee_deg": 266.6699,
      "mean_anomaly_deg": 93.4008,
      "mean_motion_rev_day": 15.27585572
    }
  ]
}